NORAD_CAT_ID,OBJECT_NAME,OBJECT_TYPE,EPOCH,MEAN_MOTION,ECCENTRICITY,INCLINATION,RA_OF_ASC_NODE,ARG_OF_PERICENTER,MEAN_ANOMALY,BSTAR,MEAN_MOTION_DOT,MEAN_MOTION_DDOT,TLE_LINE0,TLE_LINE1,TLE_LINE2,SEMIMAJOR_AXIS,PERIOD,APOGEE,PERIGEE,DECAYED
51774.0,STARLINK-3629,PAYLOAD,2023-05-21 17:10:53,15.0883823,0.0001276,53.216,251.4265,128.4344,231.6763,-5.4528e-05,-1.156e-05,0.0,0 STARLINK-3629,1 51774U 22017G   23141.71590159 -.00001156  00000-0 -54528-4 0  9997,2 51774  53.2160 251.4265 0001276 128.4344 231.6763 15.08838230 69630,6917.886,95.438,540.634,538.868,0.0
51774.0,STARLINK-3629,PAYLOAD,2023-05-22 13:50:54,15.08836129,3.73e-05,53.2167,247.5644,78.1894,281.914,-1.769e-06,-3.16e-06,0.0,0 STARLINK-3629,1 51774U 22017G   23142.57702318 -.00000316  00000-0 -17690-5 0  9991,2 51774  53.2167 247.5644 0000373  78.1894 281.9140 15.08836129 68262,6917.892,95.438,540.015,539.499,0.0
51774.0,STARLINK-3629,PAYLOAD,2023-05-22 17:01:40,15.08851233,0.0001073,53.2165,246.9669,99.9237,260.1876,-1.1288e-05,-4.68e-06,0.0,0 STARLINK-3629,1 51774U 22017G   23142.70949450 -.00000468  00000-0 -11288-4 0  9990,2 51774  53.2165 246.9669 0001073  99.9237 260.1876 15.08851233 69786,6917.846,95.437,540.453,538.969,0.0
51774.0,STARLINK-3629,PAYLOAD,2023-05-23 12:06:18,15.08831024,0.0001137,53.2162,243.3962,108.9674,251.1442,0.00012261,1.664e-05,0.0,0 STARLINK-3629,1 51774U 22017G   23143.50438653  .00001664  00000-0  12261-3 0  9995,2 51774  53.2162 243.3962 0001137 108.9674 251.1442 15.08831024 69906,6917.908,95.438,540.559,538.986,0.0
51774.0,STARLINK-3629,PAYLOAD,2023-05-24 15:07:52,15.08843901,0.0001021,53.2165,238.3446,91.1037,269.0072,3.9017e-05,3.33e-06,0.0,0 STARLINK-3629,1 51774U 22017G   23144.63046546  .00000333  00000-0  39017-4 0  9997,2 51774  53.2165 238.3446 0001021  91.1037 269.0072 15.08843901 70072,6917.868,95.437,540.44,539.027,0.0
51774.0,STARLINK-3629,PAYLOAD,2023-05-26 11:38:40,15.08841242,0.0001221,53.2171,230.0211,84.2189,275.8942,4.2103e-05,3.82e-06,0.0,0 STARLINK-3629,1 51774U 22017G   23146.48519021  .00000382  00000-0  42103-4 0  9999,2 51774  53.2171 230.0211 0001221  84.2189 275.8942 15.08841242 70359,6917.877,95.437,540.586,538.897,0.0
51774.0,STARLINK-3629,PAYLOAD,2023-05-26 13:14:03,15.08842306,0.0001204,53.217,229.7238,83.2779,276.835,4.7701e-05,4.71e-06,0.0,0 STARLINK-3629,1 51774U 22017G   23146.55142921  .00000471  00000-0  47701-4 0  9996,2 51774  53.2170 229.7238 0001204  83.2779 276.8350 15.08842306 68866,6917.873,95.437,540.571,538.905,0.0
51774.0,STARLINK-3629,PAYLOAD,2023-05-27 11:29:27,15.08841375,0.0001041,53.2155,225.5599,83.2475,276.8635,9.6342e-05,1.246e-05,0.0,0 STARLINK-3629,1 51774U 22017G   23147.47878679  .00001246  00000-0  96342-4 0  9990,2 51774  53.2155 225.5599 0001041  83.2475 276.8635 15.08841375 69003,6917.876,95.437,540.461,539.021,0.0
51774.0,STARLINK-3629,PAYLOAD,2023-05-27 22:37:09,15.08842115,0.0001022,53.2157,223.4782,82.6311,277.4797,8.1913e-05,1.016e-05,0.0,0 STARLINK-3629,1 51774U 22017G   23147.94246606  .00001016  00000-0  81913-4 0  9994,2 51774  53.2157 223.4782 0001022  82.6311 277.4797 15.08842115 70570,6917.874,95.437,540.446,539.032,0.0
51774.0,STARLINK-3629,PAYLOAD,2023-05-28 14:31:00,15.08845745,0.0001089,53.2158,220.5028,90.1806,269.9311,7.1027e-05,8.43e-06,0.0,0 STARLINK-3629,1 51774U 22017G   23148.60486332  .00000843  00000-0  71027-4 0  9992,2 51774  53.2158 220.5028 0001089  90.1806 269.9311 15.08845745 69172,6917.863,95.437,540.481,538.974,0.0
51774.0,STARLINK-3629,PAYLOAD,2023-05-29 09:35:37,15.08844877,0.0001104,53.2159,216.9333,93.9855,266.1264,4.8646e-05,4.87e-06,0.0,0 STARLINK-3629,1 51774U 22017G   23149.39974211  .00000487  00000-0  48646-4 0  9992,2 51774  53.2159 216.9333 0001104  93.9855 266.1264 15.08844877 70795,6917.865,95.437,540.494,538.967,0.0
51774.0,STARLINK-3629,PAYLOAD,2023-05-29 11:11:00,15.08846123,0.0001121,53.2159,216.6361,95.5421,264.5699,4.5092e-05,4.3e-06,0.0,0 STARLINK-3629,1 51774U 22017G   23149.46598107  .00000430  00000-0  45092-4 0  9996,2 51774  53.2159 216.6361 0001121  95.5421 264.5699 15.08846123 69304,6917.862,95.437,540.502,538.951,0.0
51774.0,STARLINK-3629,PAYLOAD,2023-05-30 07:51:02,15.08834027,0.0001216,53.2167,212.7707,98.1895,261.9235,-3.1579e-05,-7.9e-06,0.0,0 STARLINK-3629,1 51774U 22017G   23150.32711144 -.00000790  00000-0 -31579-4 0  9997,2 51774  53.2167 212.7707 0001216  98.1895 261.9235 15.08834027 70931,6917.899,95.438,540.605,538.922,0.0
51774.0,STARLINK-3629,PAYLOAD,2023-05-30 14:12:35,15.08833576,0.0001178,53.2165,211.581,93.9404,266.1723,-3.7423e-05,-8.83e-06,0.0,0 STARLINK-3629,1 51774U 22017G   23150.59207274 -.00000883  00000-0 -37423-4 0  9997,2 51774  53.2165 211.5810 0001178  93.9404 266.1723 15.08833576 69471,6917.9,95.438,540.58,538.95,0.0
51774.0,STARLINK-3629,PAYLOAD,2023-05-30 20:34:07,15.08835535,0.0001225,53.2169,210.3924,96.6753,263.4379,-3.1122e-05,-7.83e-06,0.0,0 STARLINK-3629,1 51774U 22017G   23150.85703189 -.00000783  00000-0 -31122-4 0  9991,2 51774  53.2169 210.3924 0001225  96.6753 263.4379 15.08835535 69517,6917.894,95.438,540.606,538.912,0.0
51774.0,STARLINK-3629,PAYLOAD,2023-05-31 09:17:12,15.08837192,0.000119,53.2164,208.0136,95.6495,264.4633,2.8324e-05,1.63e-06,0.0,0 STARLINK-3629,1 51774U 22017G   23151.38695024  .00000163  00000-0  28324-4 0  9998,2 51774  53.2164 208.0136 0001190  95.6495 264.4633 15.08837192 71095,6917.889,95.438,540.577,538.931,0.0
51774.0,STARLINK-3629,PAYLOAD,2023-05-31 20:24:54,15.08836654,0.0001121,53.2156,205.9325,91.9476,268.1645,5.5306e-05,5.92e-06,0.0,0 STARLINK-3629,1 51774U 22017G   23151.85063080  .00000592  00000-0  55306-4 0  9997,2 51774  53.2156 205.9325 0001121  91.9476 268.1645 15.08836654 69660,6917.891,95.438,540.531,538.98,0.0
51774.0,STARLINK-3629,PAYLOAD,2023-06-01 09:07:59,15.08836161,0.000112,53.2153,203.5535,92.0448,268.0672,8.7538e-05,1.105e-05,0.0,0 STARLINK-3629,1 51774U 22017G   23152.38055180  .00001105  00000-0  87538-4 0  9991,2 51774  53.2153 203.5535 0001120  92.0448 268.0672 15.08836161 69745,6917.892,95.438,540.532,538.982,0.0
51774.0,STARLINK-3629,PAYLOAD,2023-06-01 20:15:41,15.08836424,0.0001119,53.2152,201.472,88.7751,271.337,7.4601e-05,9e-06,0.0,0 STARLINK-3629,1 51774U 22017G   23152.84423343  .00000900  00000-0  74601-4 0  9991,2 51774  53.2152 201.4720 0001119  88.7751 271.3370 15.08836424 71314,6917.891,95.438,540.53,538.982,0.0
51774.0,STARLINK-3629,PAYLOAD,2023-06-02 12:09:33,15.08835234,0.0001196,53.2154,198.4995,91.7346,268.3783,2.0614e-05,4e-07,0.0,0 STARLINK-3629,1 51774U 22017G   23153.50663865  .00000040  00000-0  20614-4 0  9990,2 51774  53.2154 198.4995 0001196  91.7346 268.3783 15.08835234 69919,6917.895,95.438,540.587,538.933,0.0
51774.0,STARLINK-3629,PAYLOAD,2023-06-02 20:06:29,15.08835215,0.0001211,53.2153,197.0121,87.9974,272.1157,1.6388e-05,-2.7e-07,0.0,0 STARLINK-3629,1 51774U 22017G   23153.83783976 -.00000027  00000-0  16388-4 0  9991,2 51774  53.2153 197.0121 0001211  87.9974 272.1157 15.08835215 69968,6917.895,95.438,540.598,538.922,0.0
51774.0,STARLINK-3629,PAYLOAD,2023-06-03 12:00:20,15.08838808,0.0001216,53.2152,194.0385,87.2699,272.8432,3.406e-05,2.54e-06,0.0,0 STARLINK-3629,1 51774U 22017G   23154.50023796  .00000254  00000-0  34060-4 0  9991,2 51774  53.2152 194.0385 0001216  87.2699 272.8432 15.08838808 71561,6917.884,95.438,540.59,538.908,0.0
51774.0,STARLINK-3629,PAYLOAD,2023-06-03 19:57:16,15.08841541,0.0001203,53.2153,192.5516,86.8817,273.2313,6.1807e-05,6.96e-06,0.0,0 STARLINK-3629,1 51774U 22017G   23154.83143531  .00000696  00000-0  61807-4 0  9996,2 51774  53.2153 192.5516 0001203  86.8817 273.2313 15.08841541 70115,6917.876,95.437,540.573,538.908,0.0
51774.0,STARLINK-3629,PAYLOAD,2023-06-04 08:40:20,15.08844097,0.0001083,53.2151,190.1717,88.5442,271.5675,0.00013973,1.937e-05,0.0,0 STARLINK-3629,1 51774U 22017G   23155.36135055  .00001937  00000-0  13973-3 0  9996,2 51774  53.2151 190.1717 0001083  88.5442 271.5675 15.08844097 71694,6917.868,95.437,540.482,538.984,0.0
51774.0,STARLINK-3629,PAYLOAD,2023-06-04 19:48:02,15.08843653,0.0001077,53.2151,188.0903,87.3205,272.7911,9.0832e-05,1.158e-05,0.0,0 STARLINK-3629,1 51774U 22017G   23155.82503100  .00001158  00000-0  90832-4 0  9992,2 51774  53.2151 188.0903 0001077  87.3205 272.7911 15.08843653 70269,6917.869,95.437,540.479,538.989,0.0
51774.0,STARLINK-3629,PAYLOAD,2023-06-05 05:20:21,15.08839375,0.0001063,53.2153,186.3065,87.1281,272.9833,4.9871e-05,5.06e-06,0.0,0 STARLINK-3629,1 51774U 22017G   23156.22247450  .00000506  00000-0  49871-4 0  9993,2 51774  53.2153 186.3065 0001063  87.1281 272.9833 15.08839375 71822,6917.882,95.438,540.483,539.012,0.0
51774.0,STARLINK-3629,PAYLOAD,2023-06-05 08:31:07,15.08842742,0.0001052,53.2153,185.7119,86.4945,273.6167,3.361e-05,2.47e-06,0.0,0 STARLINK-3629,1 51774U 22017G   23156.35495282  .00000247  00000-0  33610-4 0  9991,2 51774  53.2153 185.7119 0001052  86.4945 273.6167 15.08842742 70348,6917.872,95.437,540.465,539.009,0.0
51774.0,STARLINK-3629,PAYLOAD,2023-06-06 03:35:46,15.08836145,0.0001033,53.2152,182.1433,87.8566,272.2544,-6.3157e-05,-1.293e-05,0.0,0 STARLINK-3629,1 51774U 22017G   23157.14983984 -.00001293  00000-0 -63157-4 0  9993,2 51774  53.2152 182.1433 0001033  87.8566 272.2544 15.08836145 71963,6917.892,95.438,540.472,539.043,0.0
51774.0,STARLINK-3629,PAYLOAD,2023-06-06 11:32:41,15.08836142,0.0001034,53.2151,180.6562,92.9762,267.1349,-6.389e-05,-1.304e-05,0.0,0 STARLINK-3629,1 51774U 22017G   23157.48103979 -.00001304  00000-0 -63890-4 0  9995,2 51774  53.2151 180.6562 0001034  92.9762 267.1349 15.08836142 70517,6917.892,95.438,540.472,539.042,0.0
51774.0,STARLINK-3629,PAYLOAD,2023-06-07 06:37:19,15.08835423,0.0001042,53.2151,177.0887,80.8165,279.2945,2.0389e-05,3.7e-07,0.0,0 STARLINK-3629,1 51774U 22017G   23158.27591960  .00000037  00000-0  20389-4 0  9990,2 51774  53.2151 177.0887 0001042  80.8165 279.2945 15.08835423 72136,6917.894,95.438,540.48,539.039,0.0
